FENGYUN 1C DEB          
1 41015U 99025EXV 17345.68994366  .00014005  00000-0  91328-3 0  9993
2 41015  99.2365 306.3286 0155862  64.0144 297.7035 14.98506547122693
